NORAD_CAT_ID,OBJECT_NAME,OBJECT_TYPE,EPOCH,MEAN_MOTION,ECCENTRICITY,INCLINATION,RA_OF_ASC_NODE,ARG_OF_PERICENTER,MEAN_ANOMALY,BSTAR,MEAN_MOTION_DOT,MEAN_MOTION_DDOT,TLE_LINE0,TLE_LINE1,TLE_LINE2,SEMIMAJOR_AXIS,PERIOD,APOGEE,PERIGEE,DECAYED
52502.0,STARLINK-3912,PAYLOAD,2023-10-13 13:46:10,15.08849275,0.0001532,53.2183,21.1641,81.6832,278.4334,0.00065291,0.00010121,0.0,0 STARLINK-3912,1 52502U 22049BD  23286.57373729  .00010121  00000-0  65291-3 0  9996,2 52502  53.2183  21.1641 0001532  81.6832 278.4334 15.08849275 79963,6917.852,95.437,540.777,538.657,0.0
52502.0,STARLINK-3912,PAYLOAD,2023-10-13 23:18:29,15.08845483,0.0001474,53.2187,19.3781,84.4505,275.6655,0.0005518,8.506e-05,0.0,0 STARLINK-3912,1 52502U 22049BD  23286.97117731  .00008506  00000-0  55180-3 0  9999,2 52502  53.2187  19.3781 0001474  84.4505 275.6655 15.08845483 80182,6917.864,95.437,540.748,538.709,0.0
52502.0,STARLINK-3912,PAYLOAD,2023-10-14 13:36:57,15.08852753,0.0001459,53.2179,16.7036,85.2335,274.8824,0.00034096,5.144e-05,0.0,0 STARLINK-3912,1 52502U 22049BD  23287.56733314  .00005144  00000-0  34096-3 0  9994,2 52502  53.2179  16.7036 0001459  85.2335 274.8824 15.08852753 80110,6917.841,95.437,540.716,538.697,0.0
52502.0,STARLINK-3912,PAYLOAD,2023-10-15 05:30:49,15.08830771,0.0001906,53.2176,13.7331,73.3096,286.8105,-4.6532e-05,-1.028e-05,0.0,0 STARLINK-3912,1 52502U 22049BD  23288.22974494 -.00001028  00000-0 -46532-4 0  9992,2 52502  53.2176  13.7331 0001906  73.3096 286.8105 15.08830771 80370,6917.909,95.438,541.092,538.455,0.0
52502.0,STARLINK-3912,PAYLOAD,2023-10-15 13:27:45,15.08827489,0.0001293,53.218,12.2433,74.1421,285.9713,-6.2049e-05,-1.275e-05,0.0,0 STARLINK-3912,1 52502U 22049BD  23288.56094744 -.00001275  00000-0 -62049-4 0  9995,2 52502  53.2180  12.2433 0001293  74.1421 285.9713 15.08827489 80267,6917.919,95.438,540.678,538.889,0.0
52502.0,STARLINK-3912,PAYLOAD,2023-10-16 11:43:09,15.08862124,0.000139,53.2177,8.0812,65.9193,294.1945,0.0014738,0.0002326,0.0,0 STARLINK-3912,1 52502U 22049BD  23289.48830883  .00023260  00000-0  14738-2 0  9995,2 52502  53.2177   8.0812 0001390  65.9193 294.1945 15.08862124 80566,6917.813,95.436,540.639,538.716,0.0
52502.0,STARLINK-3912,PAYLOAD,2023-10-17 11:33:56,15.08857775,0.0001449,53.2178,3.6205,74.4564,285.6588,0.00067312,0.00010446,0.0,0 STARLINK-3912,1 52502U 22049BD  23290.48190577  .00010446  00000-0  67312-3 0  9995,2 52502  53.2178   3.6205 0001449  74.4564 285.6588 15.08857775 80717,6917.826,95.436,540.693,538.689,0.0
52502.0,STARLINK-3912,PAYLOAD,2023-10-18 11:24:43,15.08847177,0.0001543,53.2183,359.1585,84.1261,275.9907,0.00039684,6.035e-05,0.0,0 STARLINK-3912,1 52502U 22049BD  23291.47550531  .00006035  00000-0  39684-3 0  9995,2 52502  53.2183 359.1585 0001543  84.1261 275.9907 15.08847177 80868,6917.858,95.437,540.791,538.656,0.0
52502.0,STARLINK-3912,PAYLOAD,2023-10-19 09:40:07,15.08850297,0.0001558,53.218,354.9957,85.957,274.1601,0.00026583,3.946e-05,0.0,0 STARLINK-3912,1 52502U 22049BD  23292.40286246  .00003946  00000-0  26583-3 0  9990,2 52502  53.2180 354.9957 0001558  85.9570 274.1601 15.08850297 81005,6917.849,95.437,540.792,538.636,0.0
52502.0,STARLINK-3912,PAYLOAD,2023-10-19 20:47:49,15.08851528,0.0001535,53.218,352.915,82.0509,278.0658,0.00024287,3.581e-05,0.0,0 STARLINK-3912,1 52502U 22049BD  23292.86654003  .00003581  00000-0  24287-3 0  9994,2 52502  53.2180 352.9150 0001535  82.0509 278.0658 15.08851528 80915,6917.845,95.437,540.772,538.648,0.0
52502.0,STARLINK-3912,PAYLOAD,2023-10-20 04:44:45,15.08838695,0.0001953,53.2183,351.4293,83.9223,276.1992,-6.4291e-05,-1.311e-05,0.0,0 STARLINK-3912,1 52502U 22049BD  23293.19774466 -.00001311  00000-0 -64291-4 0  9998,2 52502  53.2183 351.4293 0001953  83.9223 276.1992 15.08838695 81121,6917.884,95.438,541.1,538.398,0.0
52502.0,STARLINK-3912,PAYLOAD,2023-10-20 09:30:54,15.08832021,0.0001409,53.2188,350.5375,84.2525,275.8628,-0.00014047,-2.522e-05,0.0,0 STARLINK-3912,1 52502U 22049BD  23293.39646736 -.00002522  00000-0 -14047-3 0  9996,2 52502  53.2188 350.5375 0001409  84.2525 275.8628 15.08832021 80995,6917.905,95.438,540.745,538.795,0.0
52502.0,STARLINK-3912,PAYLOAD,2023-10-21 10:57:05,15.08846043,0.0001412,53.2191,345.7801,90.4577,269.6577,0.00022206,3.248e-05,0.0,0 STARLINK-3912,1 52502U 22049BD  23294.45630816  .00003248  00000-0  22206-3 0  9996,2 52502  53.2191 345.7801 0001412  90.4577 269.6577 15.08846043 81319,6917.862,95.437,540.704,538.75,0.0
52502.0,STARLINK-3912,PAYLOAD,2023-10-21 12:32:28,15.0884504,0.0001504,53.2192,345.4823,99.7104,260.4058,0.00042954,6.556e-05,0.0,0 STARLINK-3912,1 52502U 22049BD  23294.52254917  .00006556  00000-0  42954-3 0  9995,2 52502  53.2192 345.4823 0001504  99.7104 260.4058 15.08845040 81163,6917.865,95.437,540.77,538.69,0.0
52502.0,STARLINK-3912,PAYLOAD,2023-10-21 20:29:24,15.08839453,0.0001524,53.2183,343.9942,94.2499,265.8667,0.00031081,4.662e-05,0.0,0 STARLINK-3912,1 52502U 22049BD  23294.85375201  .00004662  00000-0  31081-3 0  9996,2 52502  53.2183 343.9942 0001524  94.2499 265.8667 15.08839453 81376,6917.882,95.438,540.801,538.693,0.0
52502.0,STARLINK-3912,PAYLOAD,2023-10-22 12:23:15,15.08847492,0.0001465,53.2188,341.0198,96.2535,263.8624,0.00029657,4.436e-05,0.0,0 STARLINK-3912,1 52502U 22049BD  23295.51614879  .00004436  00000-0  29657-3 0  9992,2 52502  53.2188 341.0198 0001465  96.2535 263.8624 15.08847492 81317,6917.857,95.437,540.736,538.709,0.0
52502.0,STARLINK-3912,PAYLOAD,2023-10-22 20:20:11,15.0884397,0.0001343,53.2189,339.534,92.959,267.1556,0.00020494,2.976e-05,0.0,0 STARLINK-3912,1 52502U 22049BD  23295.84735024  .00002976  00000-0  20494-3 0  9991,2 52502  53.2189 339.5340 0001343  92.9590 267.1556 15.08843970 81361,6917.868,95.437,540.662,538.804,0.0
52502.0,STARLINK-3912,PAYLOAD,2023-10-23 10:38:39,15.0884051,0.000148,53.2189,336.8559,94.6576,265.4585,5.6566e-05,6.12e-06,0.0,0 STARLINK-3912,1 52502U 22049BD  23296.44351276  .00000612  00000-0  56566-4 0  9996,2 52502  53.2189 336.8559 0001480  94.6576 265.4585 15.08840510 81616,6917.879,95.438,540.768,538.72,0.0
52502.0,STARLINK-3912,PAYLOAD,2023-10-23 20:10:58,15.08841662,0.0001515,53.2186,335.0745,89.2672,270.8494,0.00011941,1.613e-05,0.0,0 STARLINK-3912,1 52502U 22049BD  23296.84095375  .00001613  00000-0  11941-3 0  9994,2 52502  53.2186 335.0745 0001515  89.2672 270.8494 15.08841662 81514,6917.875,95.437,540.788,538.692,0.0
52502.0,STARLINK-3912,PAYLOAD,2023-10-24 12:04:49,15.08845741,0.000151,53.2181,332.0989,97.1431,262.9732,0.00021382,3.117e-05,0.0,0 STARLINK-3912,1 52502U 22049BD  23297.50335246  .00003117  00000-0  21382-3 0  9993,2 52502  53.2181 332.0989 0001510  97.1431 262.9732 15.08845741 81779,6917.863,95.437,540.772,538.683,0.0
52502.0,STARLINK-3912,PAYLOAD,2023-10-25 11:55:36,15.08844295,0.0001607,53.218,327.6364,107.3937,252.7231,0.00014847,2.076e-05,0.0,0 STARLINK-3912,1 52502U 22049BD  23298.49695352  .00002076  00000-0  14847-3 0  9990,2 52502  53.2180 327.6364 0001607 107.3937 252.7231 15.08844295 81928,6917.867,95.437,540.844,538.621,0.0
52502.0,STARLINK-3912,PAYLOAD,2023-10-26 11:46:24,15.08839212,0.000176,53.2181,323.1768,101.52,258.599,0.00059452,9.186e-05,0.0,0 STARLINK-3912,1 52502U 22049BD  23299.49055629  .00009186  00000-0  59452-3 0  9998,2 52502  53.2181 323.1768 0001760 101.5200 258.5990 15.08839212 82073,6917.883,95.438,540.965,538.53,0.0
52502.0,STARLINK-3912,PAYLOAD,2023-10-27 08:26:23,15.0885415,0.0001534,53.2172,319.3127,87.4659,272.6509,0.00019244,2.777e-05,0.0,0 STARLINK-3912,1 52502U 22049BD  23300.35166526  .00002777  00000-0  19244-3 0  9999,2 52502  53.2172 319.3127 0001534  87.4659 272.6509 15.08854150 82046,6917.837,95.437,540.763,538.641,0.0
52502.0,STARLINK-3912,PAYLOAD,2023-10-27 17:58:42,15.08846219,0.0001625,53.2181,317.5298,84.2712,275.8465,3.614e-05,2.87e-06,0.0,0 STARLINK-3912,1 52502U 22049BD  23300.74910702  .00000287  00000-0  36140-4 0  9994,2 52502  53.2181 317.5298 0001625  84.2712 275.8465 15.08846219 82268,6917.861,95.437,540.851,538.602,0.0
52502.0,STARLINK-3912,PAYLOAD,2023-10-28 00:20:16,15.08829706,0.0002157,53.2169,316.3378,83.3884,276.7354,-0.00012468,-2.272e-05,0.0,0 STARLINK-3912,1 52502U 22049BD  23301.01407800 -.00002272  00000-0 -12468-3 0  9999,2 52502  53.2169 316.3378 0002157  83.3884 276.7354 15.08829706 82305,6917.912,95.438,541.269,538.285,0.0
52502.0,STARLINK-3912,PAYLOAD,2023-10-28 08:17:12,15.08829251,0.0001544,53.2164,314.8538,87.7049,272.412,-0.00016657,-2.937e-05,0.0,0 STARLINK-3912,1 52502U 22049BD  23301.34527781 -.00002937  00000-0 -16657-3 0  9998,2 52502  53.2164 314.8538 0001544  87.7049 272.4120 15.08829251 82197,6917.913,95.438,540.846,538.71,0.0
52502.0,STARLINK-3912,PAYLOAD,2023-10-28 17:49:30,15.0883569,0.0001794,53.2177,313.07,80.1432,279.9763,-5.3698e-05,-1.143e-05,0.0,0 STARLINK-3912,1 52502U 22049BD  23301.74271797 -.00001143  00000-0 -53698-4 0  9990,2 52502  53.2177 313.0700 0001794  80.1432 279.9763 15.08835690 82259,6917.894,95.438,541.0,538.517,0.0
52502.0,STARLINK-3912,PAYLOAD,2023-10-29 04:57:12,15.08847828,0.0001582,53.2171,310.988,89.4883,270.629,0.00014765,2.063e-05,0.0,0 STARLINK-3912,1 52502U 22049BD  23302.20639387  .00002063  00000-0  14765-3 0  9996,2 52502  53.2171 310.9880 0001582  89.4883 270.6290 15.08847828 82489,6917.856,95.437,540.816,538.627,0.0
52502.0,STARLINK-3912,PAYLOAD,2023-10-29 09:43:22,15.08855602,0.0001651,53.2169,310.0963,88.2132,271.9049,0.00096223,0.00015066,0.0,0 STARLINK-3912,1 52502U 22049BD  23302.40511652  .00015066  00000-0  96223-3 0  9998,2 52502  53.2169 310.0963 0001651  88.2132 271.9049 15.08855602 82351,6917.833,95.437,540.84,538.556,0.0
52502.0,STARLINK-3912,PAYLOAD,2023-10-29 17:40:17,15.08844584,0.0001508,53.2171,308.6087,98.1814,261.9349,0.00035068,5.298e-05,0.0,0 STARLINK-3912,1 52502U 22049BD  23302.73631741  .00005298  00000-0  35068-3 0  9992,2 52502  53.2171 308.6087 0001508  98.1814 261.9349 15.08844584 82564,6917.866,95.437,540.775,538.688,0.0
